0 SIRIO
1 10294U 77080A   13279.70972005 -.00000120  00000-0  10000-3 0  7558
2 10294 014.6313 346.8906 0007443 070.9105 289.1838 01.00273143 71437
0 SIRIO
1 10294U 77080A   13282.70141968 -.00000126  00000-0  10000-3 0  7565
2 10294 014.6305 346.8591 0007538 071.7823 288.3080 01.00273117 71463
0 SIRIO
1 10294U 77080A   13283.69871552  .00000000  00000-0  10000-3 0  7574
2 10294 014.6308 346.8539 0007170 067.9848 292.1023 01.00268565 71476
0 SIRIO
1 10294U 77080A   13285.69313245 -.00000133  00000-0  10000-3 0  7574
2 10294 014.6296 346.8292 0007801 071.1270 288.9597 01.00273058 71499
0 SIRIO
1 10294U 77080A   13288.68483176 -.00000136  00000-0  10000-3 0  7581
2 10294 014.6295 346.8011 0007520 072.9449 287.1018 01.00272000 71521
0 SIRIO
1 10294U 77080A   13289.68215312 -.00000136  00000-0  10000-3 0  7598
2 10294 014.6291 346.7927 0006805 062.8165 297.2528 01.00272492 71534
0 SIRIO
1 10294U 77080A   13291.67661632 -.00000134  00000-0  10000-3 0  7600
2 10294 014.6280 346.7689 0006975 065.7727 294.3087 01.00272894 71557
0 SIRIO
1 10294U 77080A   13293.67103292 -.00000131  00000-0  10000-3 0  7613
2 10294 014.6274 346.7502 0006752 061.1631 298.8832 01.00272793 71578
